NORAD_CAT_ID,OBJECT_NAME,OBJECT_TYPE,EPOCH,MEAN_MOTION,ECCENTRICITY,INCLINATION,RA_OF_ASC_NODE,ARG_OF_PERICENTER,MEAN_ANOMALY,BSTAR,MEAN_MOTION_DOT,MEAN_MOTION_DDOT,TLE_LINE0,TLE_LINE1,TLE_LINE2,SEMIMAJOR_AXIS,PERIOD,APOGEE,PERIGEE,DECAYED
53017.0,STARLINK-4281,PAYLOAD,2024-02-23 17:55:49,15.08858223,0.0001376,53.2167,188.2979,69.9483,290.1657,0.00012301,1.671e-05,0.0,0 STARLINK-4281,1 53017U 22076AH  24054.74709803  .00001671  00000-0  12301-3 0  9991,2 53017  53.2167 188.2979 0001376  69.9483 290.1657 15.08858223 90991,6917.825,95.436,540.642,538.738,0.0
53017.0,STARLINK-4281,PAYLOAD,2024-02-24 08:14:18,15.08839103,8.33e-05,53.2169,185.6211,87.9633,272.1454,0.00019321,2.788e-05,0.0,0 STARLINK-4281,1 53017U 22076AH  24055.34327436  .00002788  00000-0  19321-3 0  9995,2 53017  53.2169 185.6211 0000833  87.9633 272.1454 15.08839103 91089,6917.883,95.438,540.324,539.172,0.0
53017.0,STARLINK-4281,PAYLOAD,2024-02-24 14:35:51,15.08843795,0.0001357,53.2166,184.4355,85.6973,274.4174,0.00029867,4.469e-05,0.0,0 STARLINK-4281,1 53017U 22076AH  24055.60822989  .00004469  00000-0  29867-3 0  9991,2 53017  53.2166 184.4355 0001357  85.6973 274.4174 15.08843795 90665,6917.869,95.437,540.673,538.795,0.0
53017.0,STARLINK-4281,PAYLOAD,2024-02-24 17:46:36,15.08854795,0.0001245,53.2168,183.8374,95.4206,264.6928,0.00030911,4.637e-05,0.0,0 STARLINK-4281,1 53017U 22076AH  24055.74070119  .00004637  00000-0  30911-3 0  9995,2 53017  53.2168 183.8374 0001245  95.4206 264.6928 15.08854795 91149,6917.835,95.437,540.561,538.839,0.0
53017.0,STARLINK-4281,PAYLOAD,2024-02-25 14:26:37,15.08857683,0.0001167,53.2172,179.9715,95.6011,264.5114,-3.5599e-05,-8.55e-06,0.0,0 STARLINK-4281,1 53017U 22076AH  24056.60182025 -.00000855  00000-0 -35599-4 0  9999,2 53017  53.2172 179.9715 0001167  95.6011 264.5114 15.08857683 90816,6917.826,95.436,540.499,538.884,0.0
53017.0,STARLINK-4281,PAYLOAD,2024-02-25 17:37:22,15.08864522,0.0001525,53.218,179.3741,101.2766,258.8397,3.1991e-05,2.21e-06,0.0,0 STARLINK-4281,1 53017U 22076AH  24056.73429293  .00000221  00000-0  31991-4 0  9991,2 53017  53.2180 179.3741 0001525 101.2766 258.8397 15.08864522 90838,6917.805,95.436,540.725,538.615,0.0
53017.0,STARLINK-4281,PAYLOAD,2024-02-26 11:06:38,15.08833298,0.0001455,53.2171,176.107,101.7729,258.3427,-0.00020231,-3.506e-05,0.0,0 STARLINK-4281,1 53017U 22076AH  24057.46294855 -.00003506  00000-0 -20231-3 0  9991,2 53017  53.2171 176.1070 0001455 101.7729 258.3427 15.08833298 91403,6917.901,95.438,540.772,538.759,0.0
53017.0,STARLINK-4281,PAYLOAD,2024-02-26 14:17:25,15.08833872,0.0001477,53.2169,175.5123,95.691,264.4251,-0.00016806,-2.961e-05,0.0,0 STARLINK-4281,1 53017U 22076AH  24057.59542919 -.00002961  00000-0 -16806-3 0  9999,2 53017  53.2169 175.5123 0001477  95.6910 264.4251 15.08833872 90960,6917.899,95.438,540.786,538.742,0.0
53017.0,STARLINK-4281,PAYLOAD,2024-02-27 10:57:25,15.08848408,0.000143,53.2166,171.6497,89.5532,270.5624,8.8961e-05,1.128e-05,0.0,0 STARLINK-4281,1 53017U 22076AH  24058.45654626  .00001128  00000-0  88961-4 0  9998,2 53017  53.2166 171.6497 0001430  89.5532 270.5624 15.08848408 91558,6917.855,95.437,540.709,538.73,0.0
53017.0,STARLINK-4281,PAYLOAD,2024-02-27 14:08:11,15.08853408,0.0001431,53.2166,171.0544,77.9508,282.1644,0.00015219,2.136e-05,0.0,0 STARLINK-4281,1 53017U 22076AH  24058.58902392  .00002136  00000-0  15219-3 0  9993,2 53017  53.2166 171.0544 0001431  77.9508 282.1644 15.08853408 91119,6917.839,95.437,540.694,538.714,0.0
53017.0,STARLINK-4281,PAYLOAD,2024-02-27 17:18:58,15.08854437,0.0001455,53.2167,170.4557,77.6698,282.4457,0.0004169,6.356e-05,0.0,0 STARLINK-4281,1 53017U 22076AH  24058.72150529  .00006356  00000-0  41690-3 0  9996,2 53017  53.2167 170.4557 0001455  77.6698 282.4457 15.08854437 91130,6917.836,95.437,540.708,538.695,0.0
53017.0,STARLINK-4281,PAYLOAD,2024-02-28 12:23:36,15.08840748,0.0001395,53.216,166.8805,76.0187,284.096,0.00015295,2.147e-05,0.0,0 STARLINK-4281,1 53017U 22076AH  24059.51639129  .00002147  00000-0  15295-3 0  9998,2 53017  53.2160 166.8805 0001395  76.0187 284.0960 15.08840748 91718,6917.878,95.438,540.708,538.778,0.0
53017.0,STARLINK-4281,PAYLOAD,2024-02-28 13:58:59,15.08840371,0.0001402,53.2161,166.5941,78.2162,281.8987,0.00013052,1.79e-05,0.0,0 STARLINK-4281,1 53017U 22076AH  24059.58263202  .00001790  00000-0  13052-3 0  9992,2 53017  53.2161 166.5941 0001402  78.2162 281.8987 15.08840371 91269,6917.879,95.438,540.714,538.774,0.0
53017.0,STARLINK-4281,PAYLOAD,2024-02-28 17:09:45,15.08844228,0.0001432,53.2159,165.9978,77.4238,282.6914,0.00020164,2.923e-05,0.0,0 STARLINK-4281,1 53017U 22076AH  24059.71511089  .00002923  00000-0  20164-3 0  9997,2 53017  53.2159 165.9978 0001432  77.4238 282.6914 15.08844228 91283,6917.867,95.437,540.723,538.742,0.0
53017.0,STARLINK-4281,PAYLOAD,2024-02-29 13:49:45,15.08853238,0.0001437,53.2162,162.1322,75.7602,284.355,0.00033869,5.108e-05,0.0,0 STARLINK-4281,1 53017U 22076AH  24060.57622633  .00005108  00000-0  33869-3 0  9995,2 53017  53.2162 162.1322 0001437  75.7602 284.3550 15.08853238 91411,6917.84,95.437,540.699,538.711,0.0
53017.0,STARLINK-4281,PAYLOAD,2024-02-29 23:22:04,15.0884542,0.0001296,53.2151,160.3497,77.8153,282.2984,0.00015991,2.258e-05,0.0,0 STARLINK-4281,1 53017U 22076AH  24060.97366777  .00002258  00000-0  15991-3 0  9992,2 53017  53.2151 160.3497 0001296  77.8153 282.2984 15.08845420 91938,6917.864,95.437,540.625,538.832,0.0
53017.0,STARLINK-4281,PAYLOAD,2024-03-01 13:40:33,15.08844447,0.0001625,53.2171,157.6756,96.879,263.2387,0.00013294,1.829e-05,0.0,0 STARLINK-4281,1 53017U 22076AH  24061.56982951  .00001829  00000-0  13294-3 0  9993,2 53017  53.2171 157.6756 0001625  96.8790 263.2387 15.08844447 91564,6917.867,95.437,540.856,538.608,0.0
53017.0,STARLINK-4281,PAYLOAD,2024-03-02 11:55:56,15.08849951,0.0001584,53.2164,153.5119,100.5687,259.5483,0.00019694,2.849e-05,0.0,0 STARLINK-4281,1 53017U 22076AH  24062.49718496  .00002849  00000-0  19694-3 0  9990,2 53017  53.2164 153.5119 0001584 100.5687 259.5483 15.08849951 92163,6917.85,95.437,540.811,538.619,0.0
53017.0,STARLINK-4281,PAYLOAD,2024-03-02 13:31:19,15.08853813,0.0001517,53.216,153.2142,95.5511,264.5654,0.00026128,3.874e-05,0.0,0 STARLINK-4281,1 53017U 22076AH  24062.56342340  .00003874  00000-0  26128-3 0  9998,2 53017  53.2160 153.2142 0001517  95.5511 264.5654 15.08853813 91715,6917.838,95.437,540.753,538.654,0.0
53017.0,STARLINK-4281,PAYLOAD,2024-03-03 11:46:44,15.08840098,0.0001406,53.2157,149.0499,92.8768,267.2385,7.305e-05,8.75e-06,0.0,0 STARLINK-4281,1 53017U 22076AH  24063.49078885  .00000875  00000-0  73050-4 0  9996,2 53017  53.2157 149.0499 0001406  92.8768 267.2385 15.08840098 92319,6917.88,95.438,540.718,538.772,0.0
53017.0,STARLINK-4281,PAYLOAD,2024-03-03 13:22:07,15.08841852,0.0001432,53.2164,148.7519,88.0774,272.0382,0.00010963,1.457e-05,0.0,0 STARLINK-4281,1 53017U 22076AH  24063.55702887  .00001457  00000-0  10963-3 0  9999,2 53017  53.2164 148.7519 0001432  88.0774 272.0382 15.08841852 91868,6917.875,95.437,540.73,538.749,0.0
53017.0,STARLINK-4281,PAYLOAD,2024-03-04 11:37:30,15.08861035,0.0001619,53.2157,144.5904,77.5701,282.5472,0.00053223,8.197e-05,0.0,0 STARLINK-4281,1 53017U 22076AH  24064.48438180  .00008197  00000-0  53223-3 0  9998,2 53017  53.2157 144.5904 0001619  77.5701 282.5472 15.08861035 92460,6917.816,95.436,540.801,538.561,0.0
53017.0,STARLINK-4281,PAYLOAD,2024-03-04 22:45:12,15.08847653,0.0001714,53.2166,142.5066,92.1173,268.0015,0.00011108,1.481e-05,0.0,0 STARLINK-4281,1 53017U 22076AH  24064.94806445  .00001481  00000-0  11108-3 0  9997,2 53017  53.2166 142.5066 0001714  92.1173 268.0015 15.08847653 92078,6917.857,95.437,540.908,538.536,0.0
53017.0,STARLINK-4281,PAYLOAD,2024-03-05 11:28:18,15.08814002,0.0001599,53.2164,140.1285,96.1971,263.9203,-0.00046822,-7.727e-05,0.0,0 STARLINK-4281,1 53017U 22076AH  24065.47799371 -.00007727  00000-0 -46822-3 0  9997,2 53017  53.2164 140.1285 0001599  96.1971 263.9203 15.08814002 92158,6917.96,95.439,540.931,538.719,0.0
53017.0,STARLINK-4281,PAYLOAD,2024-03-06 11:19:06,15.0884674,0.0001597,53.2169,135.667,101.9719,258.1452,0.0012094,0.00019016,0.0,0 STARLINK-4281,1 53017U 22076AH  24066.47160270  .00019016  00000-0  12094-2 0  9993,2 53017  53.2169 135.6670 0001597 101.9719 258.1452 15.08846740 92766,6917.86,95.437,540.83,538.62,0.0
53017.0,STARLINK-4281,PAYLOAD,2024-03-07 03:12:57,15.08855835,0.0001873,53.217,132.6932,120.097,240.0208,0.0007925,0.00012353,0.0,0 STARLINK-4281,1 53017U 22076AH  24067.13399897  .00012353  00000-0  79250-3 0  9991,2 53017  53.2170 132.6932 0001873 120.0970 240.0208 15.08855835 92869,6917.832,95.437,540.993,538.401,0.0
53017.0,STARLINK-4281,PAYLOAD,2024-03-07 11:09:52,15.08858459,0.0001428,53.2166,131.2088,94.3245,265.7911,0.00058228,8.996e-05,0.0,0 STARLINK-4281,1 53017U 22076AH  24067.46519616  .00008996  00000-0  58228-3 0  9990,2 53017  53.2166 131.2088 0001428  94.3245 265.7911 15.08858459 92450,6917.824,95.436,540.677,538.701,0.0
53017.0,STARLINK-4281,PAYLOAD,2024-03-08 04:39:07,15.08852357,0.0001525,53.2173,127.9376,93.1284,266.9883,0.00032893,4.953e-05,0.0,0 STARLINK-4281,1 53017U 22076AH  24068.19383359  .00004953  00000-0  32893-3 0  9993,2 53017  53.2173 127.9376 0001525  93.1284 266.9883 15.08852357 93024,6917.843,95.437,540.763,538.653,0.0
53017.0,STARLINK-4281,PAYLOAD,2024-03-08 11:00:39,15.08836756,0.00015,53.2163,126.7485,105.9989,254.1169,-0.00016397,-2.896e-05,0.0,0 STARLINK-4281,1 53017U 22076AH  24068.45879629 -.00002896  00000-0 -16397-3 0  9999,2 53017  53.2163 126.7485 0001500 105.9989 254.1169 15.08836756 93063,6917.89,95.438,540.793,538.718,0.0
53017.0,STARLINK-4281,PAYLOAD,2024-03-08 20:32:58,15.08841483,0.0001459,53.217,124.963,103.4778,256.6376,5.0361e-05,5.14e-06,0.0,0 STARLINK-4281,1 53017U 22076AH  24068.85623546  .00000514  00000-0  50361-4 0  9991,2 53017  53.2170 124.9630 0001459 103.4778 256.6376 15.08841483 92660,6917.876,95.437,540.75,538.732,0.0
